OBJECT_NAME,OBJECT_ID,EPOCH,MEAN_MOTION,ECCENTRICITY,INCLINATION,RA_OF_ASC_NODE,ARG_OF_PERICENTER,MEAN_ANOMALY,EPHEMERIS_TYPE,CLASSIFICATION_TYPE,NORAD_CAT_ID,ELEMENT_SET_NO,REV_AT_EPOCH,BSTAR,MEAN_MOTION_DOT,MEAN_MOTION_DDOT
GS-1,2023-060C,2026-06-05T15:39:10.126656,1.00277841,.0004012,2.6974,79.9630,279.8195,218.2961,0,U,56372,999,742,0,-.211E-5,0
ARABSAT-7B (BADR-8),2023-075A,2026-06-05T15:21:06.850368,1.00272024,.00049339,0.0749,26.6091,356.9344,126.8188,0,U,56757,999,1100,0,.157E-5,0
NUSANTARA TIGA (SATRIA),2023-086A,2026-06-05T17:38:01.084128,1.00269213,.00035681,0.0379,343.7809,1.5282,319.3542,0,U,57045,999,964,0,-.222E-5,0
H2SAT (HEINRICH HERTZ),2023-093A,2026-06-04T03:17:58.373952,1.00272490,.00009749,0.0448,123.4904,332.0680,207.2004,0,U,57213,999,1078,0,.14E-6,0
SYRACUSE 4B,2023-093B,2026-06-05T18:37:10.932672,1.00274225,.00002199,0.0174,10.2429,144.0914,12.7461,0,U,57214,999,685,0,-.4E-6,0
JUPITER 3 (ECHOSTAR 24),2023-108A,2026-06-04T13:28:56.229024,1.00269922,.00012025,0.0197,333.9789,99.7783,286.2561,0,U,57479,999,1052,0,0,0
LUDI TANCE-4 01A,2023-120A,2026-06-05T14:06:14.681952,1.00271875,.0000804,15.1089,194.2573,79.8156,281.2254,0,U,57624,999,1043,0,-.165E-5,0
TJS-10,2023-169A,2026-06-05T17:17:56.822784,1.00268972,.0003866,2.5143,80.6266,97.4341,68.0041,0,U,58204,999,942,0,-.236E-5,0
YAOGAN-41,2023-197A,2026-06-05T07:15:29.029248,1.00277565,.0014164,3.1509,312.9485,192.1434,340.6332,0,U,58582,999,920,0,-.351E-5,0
OVZON-3,2024-003A,2026-06-05T19:36:34.497216,1.00271758,.00003633,0.0026,267.5956,215.2734,125.2237,0,U,58698,999,733,0,.64E-6,0
HULIANWAN GAOGUI-01 (HG-01),2024-040A,2026-06-05T13:40:35.685408,1.00271733,.00032915,0.0677,327.4744,75.0933,90.2044,0,U,59069,999,721,0,.168E-5,0
EUTELSAT 36D,2024-059A,2026-06-05T13:41:13.125120,1.00272077,.00004584,0.0158,8.3491,124.5762,2.2583,0,U,59346,999,803,0,.168E-5,0
PAKSAT-MM1,2024-104A,2026-06-03T15:29:55.900032,1.00274914,.00020461,0.0154,42.0049,27.2826,93.4750,0,U,59915,999,739,0,.165E-5,0
ASTRA 1P (SES-24),2024-115A,2026-06-05T18:44:32.727840,1.00270482,.00007296,0.0643,14.2112,359.6761,180.6635,0,U,60086,999,708,0,.132E-5,0
ZHONGXING-3A,2024-122A,2026-06-05T08:52:03.200736,1.00273621,.0001356,0.0447,110.7697,342.1643,35.4546,0,U,60179,999,719,0,-.301E-5,0
HULIANWAN GAOGUI-02 (HG-02),2024-135A,2026-06-05T05:41:28.170240,1.00271173,.0007984,0.0419,353.0776,15.1546,124.0045,0,U,60327,999,738,0,-.16E-5,0
HULIANWAN GAOGUI-03 (HG-03),2024-181A,2026-06-05T14:51:39.672288,1.00270862,.00014908,0.0446,357.1623,106.3545,296.3114,0,U,61503,999,670,0,-.229E-5,0
DSN-3 (KIRAMEKI-3),2024-198A,2026-06-05T22:45:09.827424,1.00271490,.00008604,0.0248,280.5605,224.0012,235.1813,0,U,61733,999,580,0,-.237E-5,0
KOREASAT 6A,2024-206A,2026-06-05T19:12:03.766176,1.00268534,.00009978,0.0202,85.2997,352.4940,220.4354,0,U,61910,999,572,0,-.349E-5,0
OPTUS-X (ADS-01),2024-212A,2026-06-05T21:06:15.978240,1.00271776,.00018066,0.0133,296.6101,175.4126,255.2644,0,U,62006,999,564,0,-.13E-5,0
